TRANSPORTER-16 OBJECT BP
1 68477U 26067BP  26105.80899117  .00002542  00000+0  26253-3 0  9993
2 68477  97.7484  65.0197 0002330 269.6111  90.4840 14.91029729  1836
