{
  "norad_id": 68477,
  "name": "TRANSPORTER-16 OBJECT BP",
  "history": [
    {
      "epoch": "2026-04-15T19:24:56.837088Z",
      "apogee_km": 596.3481136370756,
      "perigee_km": 593.0987606733615,
      "latitude_deg": -3.351508636485188e-05,
      "longitude_deg": -70.18285025414315,
      "height_km": 597.7785485477561,
      "semi_major_axis_km": 6972.860437155218,
      "eccentricity": 0.000233,
      "inclination_deg": 97.7484,
      "raan_deg": 65.0197,
      "arg_perigee_deg": 269.6111,
      "mean_anomaly_deg": 90.484,
      "mean_motion_rev_day": 14.91029729
    }
  ]
}